{
  "norad_id": 67709,
  "name": "STARLINK-36698",
  "history": [
    {
      "epoch": "2026-03-28T22:00:01.999584Z",
      "apogee_km": 437.4719528558171,
      "perigee_km": 435.01100821135697,
      "latitude_deg": -79.83036093368568,
      "longitude_deg": 89.16312987573177,
      "height_km": 465.5334478813979,
      "semi_major_axis_km": 6814.378480533587,
      "eccentricity": 0.00018057,
      "inclination_deg": 97.2854,
      "raan_deg": 200.3684,
      "arg_perigee_deg": 87.22,
      "mean_anomaly_deg": 189.9999,
      "mean_motion_rev_day": 15.433463
    },
    {
      "epoch": "2026-03-29T04:00:01.999584Z",
      "apogee_km": 440.8148431261643,
      "perigee_km": 438.1995948037693,
      "latitude_deg": -44.68354159153613,
      "longitude_deg": 126.81085990732798,
      "height_km": 457.98720981676075,
      "semi_major_axis_km": 6817.644218964966,
      "eccentricity": 0.0001918,
      "inclination_deg": 97.2848,
      "raan_deg": 200.6187,
      "arg_perigee_deg": 72.1382,
      "mean_anomaly_deg": 152.7215,
      "mean_motion_rev_day": 15.42237509
    },
    {
      "epoch": "2026-03-30T04:00:01.999584Z",
      "apogee_km": 453.07493944638736,
      "perigee_km": 450.81554824012346,
      "latitude_deg": 5.70553593532628,
      "longitude_deg": -46.68408428421606,
      "height_km": 454.1968428762928,
      "semi_major_axis_km": 6830.082243843255,
      "eccentricity": 0.0001654,
      "inclination_deg": 97.2857,
      "raan_deg": 201.6144,
      "arg_perigee_deg": 80.1535,
      "mean_anomaly_deg": 285.7038,
      "mean_motion_rev_day": 15.38026655
    }
  ]
}